{"type": "FeatureCollection", "features": [ {"type": "Feature", "properties": {"norad_id": 37834, "name": "INTELSAT 18 (IS-18)", "group": "intelsat", "lat": 0.002125380875425598, "lon": 148.1446555530775, "alt_km": 35792.72340209597, "timestamp": "2025-12-27T15:27:10.811198+00:00", "meta": {"OBJECT_NAME": "INTELSAT 18 (IS-18)", "OBJECT_ID": "2011-056A", "EPOCH": "2025-12-27T03:35:06.926208", "MEAN_MOTION": 1.00271997, "ECCENTRICITY": 0.00019967, "INCLINATION": 0.0126, "RA_OF_ASC_NODE": 304.9767, "ARG_OF_PERICENTER": 346.2266, "MEAN_ANOMALY": 38.4584, "EPHEMERIS_TYPE": 0, "CLASSIFICATION_TYPE": "U", "NORAD_CAT_ID": 37834, "ELEMENT_SET_NO": 999, "REV_AT_EPOCH": 5208, "BSTAR": 0, "MEAN_MOTION_DOT": 7.5e-07, "MEAN_MOTION_DDOT": 0}, "tle": {"line1": "1 37834U 11056A   25361.14938572  .00000075  00000+0  00000+0 0  9994", "line2": "2 37834   0.0126 304.9767 0001996 346.2266  38.4584  1.00271997 52089"}}, "geometry": {"type": "Point", "coordinates": [148.1446555530775, 0.002125380875425598]}}, {"type": "Feature", "properties": {"norad_id": 38098, "name": "INTELSAT 22 (IS-22)", "group": "intelsat", "lat": -0.0014022024651510457, "lon": 40.26459088858119, "alt_km": 35787.80413154589, "timestamp": "2025-12-27T15:27:10.811211+00:00", "meta": {"OBJECT_NAME": "INTELSAT 22 (IS-22)", "OBJECT_ID": "2012-011A", "EPOCH": "2025-12-27T04:51:38.509056", "MEAN_MOTION": 1.00270702, "ECCENTRICITY": 0.00019607, "INCLINATION": 0.0346, "RA_OF_ASC_NODE": 55.204, "ARG_OF_PERICENTER": 245.33, "MEAN_ANOMALY": 300.3978, "EPHEMERIS_TYPE": 0, "CLASSIFICATION_TYPE": "U", "NORAD_CAT_ID": 38098, "ELEMENT_SET_NO": 999, "REV_AT_EPOCH": 546, "BSTAR": 0, "MEAN_MOTION_DOT": 0, "MEAN_MOTION_DDOT": 0}, "tle": {"line1": "1 38098U 12011A   25361.20252904  .00000000  00000+0  00000+0 0  9992", "line2": "2 38098   0.0346  55.2040 0001960 245.3300 300.3978  1.00270702  5466"}}, "geometry": {"type": "Point", "coordinates": [40.26459088858119, -0.0014022024651510457]}}, {"type": "Feature", "properties": {"norad_id": 38356, "name": "INTELSAT 19 (IS-19)", "group": "intelsat", "lat": 0.0206149468226263, "lon": 134.14668085734118, "alt_km": 35795.825777656755, "timestamp": "2025-12-27T15:27:10.811222+00:00", "meta": {"OBJECT_NAME": "INTELSAT 19 (IS-19)", "OBJECT_ID": "2012-030A", "EPOCH": "2025-12-27T04:37:38.522208", "MEAN_MOTION": 1.00271931, "ECCENTRICITY": 0.00030562, "INCLINATION": 0.0097, "RA_OF_ASC_NODE": 357.2278, "ARG_OF_PERICENTER": 276.1124, "MEAN_ANOMALY": 58.0074, "EPHEMERIS_TYPE": 0, "CLASSIFICATION_TYPE": "U", "NORAD_CAT_ID": 38356, "ELEMENT_SET_NO": 999, "REV_AT_EPOCH": 4872, "BSTAR": 0, "MEAN_MOTION_DOT": -3.4e-07, "MEAN_MOTION_DDOT": 0}, "tle": {"line1": "1 38356U 12030A   25361.19280697 -.00000034  00000+0  00000+0 0  9996", "line2": "2 38356   0.0097 357.2278 0003056 276.1124  58.0074  1.00271931 48723"}}, "geometry": {"type": "Point", "coordinates": [134.14668085734118, 0.0206149468226263]}}, {"type": "Feature", "properties": {"norad_id": 38740, "name": "INTELSAT 20 (IS-20)", "group": "intelsat", "lat": -0.001047393517166847, "lon": 36.647852629283136, "alt_km": 35792.20419865712, "timestamp": "2025-12-27T15:27:10.811234+00:00", "meta": {"OBJECT_NAME": "INTELSAT 20 (IS-20)", "OBJECT_ID": "2012-043A", "EPOCH": "2025-12-26T23:37:51.657024", "MEAN_MOTION": 1.00270086, "ECCENTRICITY": 0.00016538, "INCLINATION": 0.0132, "RA_OF_ASC_NODE": 63.1517, "ARG_OF_PERICENTER": 118.2124, "MEAN_ANOMALY": 337.3262, "EPHEMERIS_TYPE": 0, "CLASSIFICATION_TYPE": "U", "NORAD_CAT_ID": 38740, "ELEMENT_SET_NO": 999, "REV_AT_EPOCH": 4902, "BSTAR": 0, "MEAN_MOTION_DOT": -2e-08, "MEAN_MOTION_DDOT": 0}, "tle": {"line1": "1 38740U 12043A   25360.98462566 -.00000002  00000+0  00000+0 0  9995", "line2": "2 38740   0.0132  63.1517 0001653 118.2124 337.3262  1.00270086 49022"}}, "geometry": {"type": "Point", "coordinates": [36.647852629283136, -0.001047393517166847]}}, {"type": "Feature", "properties": {"norad_id": 38749, "name": "INTELSAT 21 (IS-21)", "group": "intelsat", "lat": -0.018583042891227485, "lon": -89.82401592944936, "alt_km": 35778.09463254416, "timestamp": "2025-12-27T15:27:10.811247+00:00", "meta": {"OBJECT_NAME": "INTELSAT 21 (IS-21)", "OBJECT_ID": "2012-045A", "EPOCH": "2025-12-27T05:52:38.754336", "MEAN_MOTION": 1.00271047, "ECCENTRICITY": 0.00019506, "INCLINATION": 0.002, "RA_OF_ASC_NODE": 31.4774, "ARG_OF_PERICENTER": 241.6439, "MEAN_ANOMALY": 213.0375, "EPHEMERIS_TYPE": 0, "CLASSIFICATION_TYPE": "U", "NORAD_CAT_ID": 38749, "ELEMENT_SET_NO": 999, "REV_AT_EPOCH": 4880, "BSTAR": 0, "MEAN_MOTION_DOT": -2.62e-06, "MEAN_MOTION_DDOT": 0}, "tle": {"line1": "1 38749U 12045A   25361.24489299 -.00000262  00000+0  00000+0 0  9996", "line2": "2 38749   0.0020  31.4774 0001950 241.6439 213.0375  1.00271047 48808"}}, "geometry": {"type": "Point", "coordinates": [-89.82401592944936, -0.018583042891227485]}}, {"type": "Feature", "properties": {"norad_id": 38867, "name": "INTELSAT 23 (IS-23)", "group": "intelsat", "lat": -0.018606853279394535, "lon": -84.82954752548342, "alt_km": 35783.45114919881, "timestamp": "2025-12-27T15:27:10.811258+00:00", "meta": {"OBJECT_NAME": "INTELSAT 23 (IS-23)", "OBJECT_ID": "2012-057A", "EPOCH": "2025-12-27T02:28:38.678880", "MEAN_MOTION": 1.0027277, "ECCENTRICITY": 6.803e-05, "INCLINATION": 0.0208, "RA_OF_ASC_NODE": 81.4413, "ARG_OF_PERICENTER": 226.5034, "MEAN_ANOMALY": 132.0687, "EPHEMERIS_TYPE": 0, "CLASSIFICATION_TYPE": "U", "NORAD_CAT_ID": 38867, "ELEMENT_SET_NO": 999, "REV_AT_EPOCH": 4822, "BSTAR": 0, "MEAN_MOTION_DOT": -2.62e-06, "MEAN_MOTION_DDOT": 0}, "tle": {"line1": "1 38867U 12057A   25361.10322545 -.00000262  00000+0  00000+0 0  9995", "line2": "2 38867   0.0208  81.4413 0000680 226.5034 132.0687  1.00272770 48220"}}, "geometry": {"type": "Point", "coordinates": [-84.82954752548342, -0.018606853279394535]}}, {"type": "Feature", "properties": {"norad_id": 39360, "name": "FM-6", "group": "intelsat", "lat": 0.009215504040225465, "lon": -148.02304085741667, "alt_km": 35776.021624515175, "timestamp": "2025-12-27T15:27:10.811270+00:00", "meta": {"OBJECT_NAME": "FM-6", "OBJECT_ID": "2013-058A", "EPOCH": "2025-12-25T23:15:38.712384", "MEAN_MOTION": 1.00267622, "ECCENTRICITY": 0.00031338, "INCLINATION": 0.0194, "RA_OF_ASC_NODE": 74.6696, "ARG_OF_PERICENTER": 105.3027, "MEAN_ANOMALY": 147.4825, "EPHEMERIS_TYPE": 0, "CLASSIFICATION_TYPE": "U", "NORAD_CAT_ID": 39360, "ELEMENT_SET_NO": 999, "REV_AT_EPOCH": 4433, "BSTAR": 0, "MEAN_MOTION_DOT": 5e-08, "MEAN_MOTION_DDOT": 0}, "tle": {"line1": "1 39360U 13058A   25359.96919806  .00000005  00000+0  00000+0 0  9993", "line2": "2 39360   0.0194  74.6696 0003133 105.3027 147.4825  1.00267622 44334"}}, "geometry": {"type": "Point", "coordinates": [-148.02304085741667, 0.009215504040225465]}}, {"type": "Feature", "properties": {"norad_id": 40271, "name": "INTELSAT 30 (IS-30)", "group": "intelsat", "lat": -0.014185739908402066, "lon": -126.88988085671895, "alt_km": 35791.28330827836, "timestamp": "2025-12-27T15:27:10.811282+00:00", "meta": {"OBJECT_NAME": "INTELSAT 30 (IS-30)", "OBJECT_ID": "2014-062A", "EPOCH": "2025-12-26T05:38:38.555808", "MEAN_MOTION": 1.00271488, "ECCENTRICITY": 0.0001425, "INCLINATION": 0.0176, "RA_OF_ASC_NODE": 41.6763, "ARG_OF_PERICENTER": 44.2324, "MEAN_ANOMALY": 358.6785, "EPHEMERIS_TYPE": 0, "CLASSIFICATION_TYPE": "U", "NORAD_CAT_ID": 40271, "ELEMENT_SET_NO": 999, "REV_AT_EPOCH": 506, "BSTAR": 0, "MEAN_MOTION_DOT": -1.29e-06, "MEAN_MOTION_DDOT": 0}, "tle": {"line1": "1 40271U 14062A   25360.23516847 -.00000129  00000+0  00000+0 0  9990", "line2": "2 40271   0.0176  41.6763 0001425  44.2324 358.6785  1.00271488  5062"}}, "geometry": {"type": "Point", "coordinates": [-126.88988085671895, -0.014185739908402066]}}, {"type": "Feature", "properties": {"norad_id": 40333, "name": "DIRECTV 14", "group": "intelsat", "lat": -0.028391145700168156, "lon": -130.96135551754261, "alt_km": 35782.27004478751, "timestamp": "2025-12-27T15:27:10.811294+00:00", "meta": {"OBJECT_NAME": "DIRECTV 14", "OBJECT_ID": "2014-078B", "EPOCH": "2025-12-24T12:37:43.773312", "MEAN_MOTION": 1.00279829, "ECCENTRICITY": 3.885e-05, "INCLINATION": 0.0184, "RA_OF_ASC_NODE": 340.4706, "ARG_OF_PERICENTER": 254.7884, "MEAN_ANOMALY": 308.2619, "EPHEMERIS_TYPE": 0, "CLASSIFICATION_TYPE": "U", "NORAD_CAT_ID": 40333, "ELEMENT_SET_NO": 999, "REV_AT_EPOCH": 4029, "BSTAR": 0, "MEAN_MOTION_DOT": -1.06e-06, "MEAN_MOTION_DDOT": 0}, "tle": {"line1": "1 40333U 14078B   25358.52620108 -.00000106  00000+0  00000+0 0  9996", "line2": "2 40333   0.0184 340.4706 0000388 254.7884 308.2619  1.00279829 40291"}}, "geometry": {"type": "Point", "coordinates": [-130.96135551754261, -0.028391145700168156]}}, {"type": "Feature", "properties": {"norad_id": 40663, "name": "DIRECTV 15", "group": "intelsat", "lat": -0.014961691393411079, "lon": -134.74448732734524, "alt_km": 35787.23102880381, "timestamp": "2025-12-27T15:27:10.811306+00:00", "meta": {"OBJECT_NAME": "DIRECTV 15", "OBJECT_ID": "2015-026A", "EPOCH": "2025-12-26T07:34:38.576064", "MEAN_MOTION": 1.00269733, "ECCENTRICITY": 3.61e-05, "INCLINATION": 0.018, "RA_OF_ASC_NODE": 29.1854, "ARG_OF_PERICENTER": 84.7041, "MEAN_ANOMALY": 351.9356, "EPHEMERIS_TYPE": 0, "CLASSIFICATION_TYPE": "U", "NORAD_CAT_ID": 40663, "ELEMENT_SET_NO": 999, "REV_AT_EPOCH": 3873, "BSTAR": 0, "MEAN_MOTION_DOT": -8e-07, "MEAN_MOTION_DDOT": 0}, "tle": {"line1": "1 40663U 15026A   25360.31572426 -.00000080  00000+0  00000+0 0  9996", "line2": "2 40663   0.0180  29.1854 0000361  84.7041 351.9356  1.00269733 38737"}}, "geometry": {"type": "Point", "coordinates": [-134.74448732734524, -0.014961691393411079]}}]}